{"type": "FeatureCollection", "features": [ {"type": "Feature", "properties": {"norad_id": 34327, "name": "COSMOS 2251 DEB", "group": "cosmos-2251-debris", "lat": 69.50023869669594, "lon": -78.79958843296275, "alt_km": 609.8233489827053, "timestamp": "2025-12-22T23:36:21.110609+00:00", "meta": {"OBJECT_NAME": "COSMOS 2251 DEB", "OBJECT_ID": "1993-036NZ", "EPOCH": "2025-12-22T12:06:47.865024", "MEAN_MOTION": 14.89383161, "ECCENTRICITY": 0.00334417, "INCLINATION": 73.9934, "RA_OF_ASC_NODE": 152.3164, "ARG_OF_PERICENTER": 326.7772, "MEAN_ANOMALY": 89.4484, "EPHEMERIS_TYPE": 0, "CLASSIFICATION_TYPE": "U", "NORAD_CAT_ID": 34327, "ELEMENT_SET_NO": 999, "REV_AT_EPOCH": 89653, "BSTAR": 0.0013815445, "MEAN_MOTION_DOT": 0.00013248, "MEAN_MOTION_DDOT": 0}, "tle": {"line1": "1 34327U 93036NZ  25356.50472066  .00013248  00000+0  13815-2 0  9998", "line2": "2 34327  73.9934 152.3164 0033441 326.7772  89.4484 14.89383161896539"}}, "geometry": {"type": "Point", "coordinates": [-78.79958843296275, 69.50023869669594]}}, {"type": "Feature", "properties": {"norad_id": 34340, "name": "COSMOS 2251 DEB", "group": "cosmos-2251-debris", "lat": 2.049542747659633, "lon": 110.29244774162197, "alt_km": 1128.314886410988, "timestamp": "2025-12-22T23:36:21.110619+00:00", "meta": {"OBJECT_NAME": "COSMOS 2251 DEB", "OBJECT_ID": "1993-036PN", "EPOCH": "2025-12-22T05:54:48.444192", "MEAN_MOTION": 13.79609533, "ECCENTRICITY": 0.02838495, "INCLINATION": 74.0788, "RA_OF_ASC_NODE": 292.1086, "ARG_OF_PERICENTER": 37.6724, "MEAN_ANOMALY": 78.132, "EPHEMERIS_TYPE": 0, "CLASSIFICATION_TYPE": "U", "NORAD_CAT_ID": 34340, "ELEMENT_SET_NO": 999, "REV_AT_EPOCH": 84399, "BSTAR": 0.001495256, "MEAN_MOTION_DOT": 2.066e-05, "MEAN_MOTION_DDOT": 0}, "tle": {"line1": "1 34340U 93036PN  25356.24639403  .00002066  00000+0  14953-2 0  9994", "line2": "2 34340  74.0788 292.1086 0283849  37.6724  78.1320 13.79609533843991"}}, "geometry": {"type": "Point", "coordinates": [110.29244774162197, 2.049542747659633]}}, {"type": "Feature", "properties": {"norad_id": 34343, "name": "COSMOS 2251 DEB", "group": "cosmos-2251-debris", "lat": -36.39481931913263, "lon": 57.49525443183761, "alt_km": 652.2678775305785, "timestamp": "2025-12-22T23:36:21.110630+00:00", "meta": {"OBJECT_NAME": "COSMOS 2251 DEB", "OBJECT_ID": "1993-036PR", "EPOCH": "2025-12-22T14:30:05.448672", "MEAN_MOTION": 14.69577861, "ECCENTRICITY": 0.00242395, "INCLINATION": 74.0204, "RA_OF_ASC_NODE": 70.4247, "ARG_OF_PERICENTER": 342.0355, "MEAN_ANOMALY": 133.9346, "EPHEMERIS_TYPE": 0, "CLASSIFICATION_TYPE": "U", "NORAD_CAT_ID": 34343, "ELEMENT_SET_NO": 999, "REV_AT_EPOCH": 88875, "BSTAR": 0.0012702206, "MEAN_MOTION_DOT": 7.555e-05, "MEAN_MOTION_DDOT": 0}, "tle": {"line1": "1 34343U 93036PR  25356.60422973  .00007555  00000+0  12702-2 0  9997", "line2": "2 34343  74.0204  70.4247 0024239 342.0355 133.9346 14.69577861888751"}}, "geometry": {"type": "Point", "coordinates": [57.49525443183761, -36.39481931913263]}}, {"type": "Feature", "properties": {"norad_id": 34344, "name": "COSMOS 2251 DEB", "group": "cosmos-2251-debris", "lat": -73.809298945127, "lon": -6.20800956055455, "alt_km": 731.909813998248, "timestamp": "2025-12-22T23:36:21.110640+00:00", "meta": {"OBJECT_NAME": "COSMOS 2251 DEB", "OBJECT_ID": "1993-036PS", "EPOCH": "2025-12-20T16:41:07.998144", "MEAN_MOTION": 14.16466858, "ECCENTRICITY": 0.01566321, "INCLINATION": 73.9786, "RA_OF_ASC_NODE": 96.1449, "ARG_OF_PERICENTER": 278.7098, "MEAN_ANOMALY": 204.8003, "EPHEMERIS_TYPE": 0, "CLASSIFICATION_TYPE": "U", "NORAD_CAT_ID": 34344, "ELEMENT_SET_NO": 999, "REV_AT_EPOCH": 86209, "BSTAR": 0.0013151537, "MEAN_MOTION_DOT": 2.924e-05, "MEAN_MOTION_DDOT": 0}, "tle": {"line1": "1 34344U 93036PS  25354.69523146  .00002924  00000+0  13152-2 0  9994", "line2": "2 34344  73.9786  96.1449 0156632 278.7098 204.8003 14.16466858862098"}}, "geometry": {"type": "Point", "coordinates": [-6.20800956055455, -73.809298945127]}}, {"type": "Feature", "properties": {"norad_id": 34346, "name": "COSMOS 2251 DEB", "group": "cosmos-2251-debris", "lat": 52.79968094067267, "lon": 92.25289530204111, "alt_km": 743.1635937570636, "timestamp": "2025-12-22T23:36:21.110651+00:00", "meta": {"OBJECT_NAME": "COSMOS 2251 DEB", "OBJECT_ID": "1993-036PU", "EPOCH": "2025-12-21T06:26:28.020768", "MEAN_MOTION": 13.99718018, "ECCENTRICITY": 0.0206186, "INCLINATION": 73.9944, "RA_OF_ASC_NODE": 297.4469, "ARG_OF_PERICENTER": 114.3131, "MEAN_ANOMALY": 9.62, "EPHEMERIS_TYPE": 0, "CLASSIFICATION_TYPE": "U", "NORAD_CAT_ID": 34346, "ELEMENT_SET_NO": 999, "REV_AT_EPOCH": 85529, "BSTAR": 0.00083055, "MEAN_MOTION_DOT": 1.438e-05, "MEAN_MOTION_DDOT": 0}, "tle": {"line1": "1 34346U 93036PU  25355.26837987  .00001438  00000+0  83055-3 0  9990", "line2": "2 34346  73.9944 297.4469 0206186 114.3131   9.6200 13.99718018855299"}}, "geometry": {"type": "Point", "coordinates": [92.25289530204111, 52.79968094067267]}}, {"type": "Feature", "properties": {"norad_id": 34383, "name": "COSMOS 2251 DEB", "group": "cosmos-2251-debris", "lat": 41.7354901863023, "lon": -68.63224871212924, "alt_km": 530.7827321154782, "timestamp": "2025-12-22T23:36:21.110661+00:00", "meta": {"OBJECT_NAME": "COSMOS 2251 DEB", "OBJECT_ID": "1993-036PY", "EPOCH": "2025-12-22T04:51:48.043296", "MEAN_MOTION": 15.09793861, "ECCENTRICITY": 0.00029824, "INCLINATION": 74.0214, "RA_OF_ASC_NODE": 278.1699, "ARG_OF_PERICENTER": 45.2855, "MEAN_ANOMALY": 75.7122, "EPHEMERIS_TYPE": 0, "CLASSIFICATION_TYPE": "U", "NORAD_CAT_ID": 34383, "ELEMENT_SET_NO": 999, "REV_AT_EPOCH": 89256, "BSTAR": 0.0036809183, "MEAN_MOTION_DOT": 0.00059959, "MEAN_MOTION_DDOT": 0}, "tle": {"line1": "1 34383U 93036PY  25356.20263939  .00059959  00000+0  36809-2 0  9991", "line2": "2 34383  74.0214 278.1699 0002982  45.2855  75.7122 15.09793861892566"}}, "geometry": {"type": "Point", "coordinates": [-68.63224871212924, 41.7354901863023]}}, {"type": "Feature", "properties": {"norad_id": 34387, "name": "COSMOS 2251 DEB", "group": "cosmos-2251-debris", "lat": 72.68848637574946, "lon": -100.47902713325179, "alt_km": 763.7184373245409, "timestamp": "2025-12-22T23:36:21.110754+00:00", "meta": {"OBJECT_NAME": "COSMOS 2251 DEB", "OBJECT_ID": "1993-036QC", "EPOCH": "2025-12-20T21:37:25.254336", "MEAN_MOTION": 14.43836534, "ECCENTRICITY": 0.0038931, "INCLINATION": 74.0393, "RA_OF_ASC_NODE": 196.7266, "ARG_OF_PERICENTER": 292.1775, "MEAN_ANOMALY": 130.3396, "EPHEMERIS_TYPE": 0, "CLASSIFICATION_TYPE": "U", "NORAD_CAT_ID": 34387, "ELEMENT_SET_NO": 999, "REV_AT_EPOCH": 88299, "BSTAR": 0.000206, "MEAN_MOTION_DOT": 6.81e-06, "MEAN_MOTION_DDOT": 0}, "tle": {"line1": "1 34387U 93036QC  25354.90098674  .00000681  00000+0  20600-3 0  9993", "line2": "2 34387  74.0393 196.7266 0038931 292.1775 130.3396 14.43836534882999"}}, "geometry": {"type": "Point", "coordinates": [-100.47902713325179, 72.68848637574946]}}, {"type": "Feature", "properties": {"norad_id": 34388, "name": "COSMOS 2251 DEB", "group": "cosmos-2251-debris", "lat": -74.02209634909005, "lon": 115.43409691178198, "alt_km": 725.2962594954924, "timestamp": "2025-12-22T23:36:21.110767+00:00", "meta": {"OBJECT_NAME": "COSMOS 2251 DEB", "OBJECT_ID": "1993-036QD", "EPOCH": "2025-12-21T09:04:32.879712", "MEAN_MOTION": 14.49402833, "ECCENTRICITY": 0.00137831, "INCLINATION": 74.0375, "RA_OF_ASC_NODE": 206.903, "ARG_OF_PERICENTER": 254.5562, "MEAN_ANOMALY": 282.3738, "EPHEMERIS_TYPE": 0, "CLASSIFICATION_TYPE": "U", "NORAD_CAT_ID": 34388, "ELEMENT_SET_NO": 999, "REV_AT_EPOCH": 88280, "BSTAR": 0.00046887318, "MEAN_MOTION_DOT": 1.768e-05, "MEAN_MOTION_DDOT": 0}, "tle": {"line1": "1 34388U 93036QD  25355.37815833  .00001768  00000+0  46887-3 0  9992", "line2": "2 34388  74.0375 206.9030 0013783 254.5562 282.3738 14.49402833882802"}}, "geometry": {"type": "Point", "coordinates": [115.43409691178198, -74.02209634909005]}}, {"type": "Feature", "properties": {"norad_id": 34389, "name": "COSMOS 2251 DEB", "group": "cosmos-2251-debris", "lat": 3.7179024305099753, "lon": -128.11290691248723, "alt_km": 736.2437995541268, "timestamp": "2025-12-22T23:36:21.110779+00:00", "meta": {"OBJECT_NAME": "COSMOS 2251 DEB", "OBJECT_ID": "1993-036QE", "EPOCH": "2025-12-21T19:37:10.786080", "MEAN_MOTION": 14.41552497, "ECCENTRICITY": 0.00293108, "INCLINATION": 74.0179, "RA_OF_ASC_NODE": 232.9816, "ARG_OF_PERICENTER": 343.3469, "MEAN_ANOMALY": 91.4063, "EPHEMERIS_TYPE": 0, "CLASSIFICATION_TYPE": "U", "NORAD_CAT_ID": 34389, "ELEMENT_SET_NO": 999, "REV_AT_EPOCH": 88143, "BSTAR": 0.00025517081, "MEAN_MOTION_DOT": 8.07e-06, "MEAN_MOTION_DDOT": 0}, "tle": {"line1": "1 34389U 93036QE  25355.81748595  .00000807  00000+0  25517-3 0  9992", "line2": "2 34389  74.0179 232.9816 0029310 343.3469  91.4063 14.41552497881434"}}, "geometry": {"type": "Point", "coordinates": [-128.11290691248723, 3.7179024305099753]}}, {"type": "Feature", "properties": {"norad_id": 34396, "name": "COSMOS 2251 DEB", "group": "cosmos-2251-debris", "lat": 59.80940973996907, "lon": 133.50792627281658, "alt_km": 639.3645620357056, "timestamp": "2025-12-22T23:36:21.110789+00:00", "meta": {"OBJECT_NAME": "COSMOS 2251 DEB", "OBJECT_ID": "1993-036QM", "EPOCH": "2025-12-22T13:35:44.306592", "MEAN_MOTION": 14.74658189, "ECCENTRICITY": 0.00047657, "INCLINATION": 74.0296, "RA_OF_ASC_NODE": 104.8351, "ARG_OF_PERICENTER": 143.1496, "MEAN_ANOMALY": 227.6558, "EPHEMERIS_TYPE": 0, "CLASSIFICATION_TYPE": "U", "NORAD_CAT_ID": 34396, "ELEMENT_SET_NO": 999, "REV_AT_EPOCH": 88491, "BSTAR": 0.0020644247, "MEAN_MOTION_DOT": 0.00013778, "MEAN_MOTION_DDOT": 0}, "tle": {"line1": "1 34396U 93036QM  25356.56648503  .00013778  00000+0  20644-2 0  9997", "line2": "2 34396  74.0296 104.8351 0004765 143.1496 227.6558 14.74658189884915"}}, "geometry": {"type": "Point", "coordinates": [133.50792627281658, 59.80940973996907]}}]}